[{"OBJECT_NAME":"STARLINK-11685 [DTC]","OBJECT_ID":"2025-075E","EPOCH":"2026-03-20T09:12:12.863808","MEAN_MOTION":15.70876778,"ECCENTRICITY":0.0002026,"INCLINATION":43.0019,"RA_OF_ASC_NODE":89.0582,"ARG_OF_PERICENTER":273.3407,"MEAN_ANOMALY":86.7229,"EPHEMERIS_TYPE":0,"CLASSIFICATION_TYPE":"U","NORAD_CAT_ID":63552,"ELEMENT_SET_NO":999,"REV_AT_EPOCH":5493,"BSTAR":0.0010984,"MEAN_MOTION_DOT":0.00143162,"MEAN_MOTION_DDOT":0},{"OBJECT_NAME":"STARLINK-11697 [DTC]","OBJECT_ID":"2025-075F","EPOCH":"2026-03-20T10:51:25.203456","MEAN_MOTION":15.70904242,"ECCENTRICITY":0.0001627,"INCLINATION":43.001,"RA_OF_ASC_NODE":88.7182,"ARG_OF_PERICENTER":284.7015,"MEAN_ANOMALY":75.3672,"EPHEMERIS_TYPE":0,"CLASSIFICATION_TYPE":"U","NORAD_CAT_ID":63553,"ELEMENT_SET_NO":999,"REV_AT_EPOCH":5494,"BSTAR":0.0018085,"MEAN_MOTION_DOT":0.00239048,"MEAN_MOTION_DDOT":0},{"OBJECT_NAME":"STARLINK-11680 [DTC]","OBJECT_ID":"2025-075G","EPOCH":"2026-03-20T11:29:38.801184","MEAN_MOTION":15.70893689,"ECCENTRICITY":8.89e-5,"INCLINATION":42.9994,"RA_OF_ASC_NODE":88.9306,"ARG_OF_PERICENTER":252.4932,"MEAN_ANOMALY":107.5838,"EPHEMERIS_TYPE":0,"CLASSIFICATION_TYPE":"U","NORAD_CAT_ID":63554,"ELEMENT_SET_NO":999,"REV_AT_EPOCH":5494,"BSTAR":0.0016915,"MEAN_MOTION_DOT":0.00223026,"MEAN_MOTION_DDOT":0},{"OBJECT_NAME":"STARLINK-11687 [DTC]","OBJECT_ID":"2025-075H","EPOCH":"2026-03-20T12:00:00.998784","MEAN_MOTION":15.96494633,"ECCENTRICITY":0.0010231,"INCLINATION":42.9884,"RA_OF_ASC_NODE":84.6257,"ARG_OF_PERICENTER":128.4462,"MEAN_ANOMALY":211.8521,"EPHEMERIS_TYPE":0,"CLASSIFICATION_TYPE":"U","NORAD_CAT_ID":63555,"ELEMENT_SET_NO":999,"REV_AT_EPOCH":575,"BSTAR":0.00097225,"MEAN_MOTION_DOT":0.00425581,"MEAN_MOTION_DDOT":8.1339e-5},{"OBJECT_NAME":"STARLINK-11626 [DTC]","OBJECT_ID":"2025-075J","EPOCH":"2026-03-20T10:21:01.250208","MEAN_MOTION":15.70884069,"ECCENTRICITY":0.0002397,"INCLINATION":43.0008,"RA_OF_ASC_NODE":89.4404,"ARG_OF_PERICENTER":267.0101,"MEAN_ANOMALY":93.0492,"EPHEMERIS_TYPE":0,"CLASSIFICATION_TYPE":"U","NORAD_CAT_ID":63556,"ELEMENT_SET_NO":999,"REV_AT_EPOCH":5493,"BSTAR":0.001103,"MEAN_MOTION_DOT":0.00143826,"MEAN_MOTION_DDOT":0},{"OBJECT_NAME":"STARLINK-11668 [DTC]","OBJECT_ID":"2025-075K","EPOCH":"2026-03-20T10:13:22.748736","MEAN_MOTION":15.70887332,"ECCENTRICITY":0.0001666,"INCLINATION":43.0013,"RA_OF_ASC_NODE":89.3977,"ARG_OF_PERICENTER":257.8017,"MEAN_ANOMALY":102.2664,"EPHEMERIS_TYPE":0,"CLASSIFICATION_TYPE":"U","NORAD_CAT_ID":63557,"ELEMENT_SET_NO":999,"REV_AT_EPOCH":5493,"BSTAR":0.0013635,"MEAN_MOTION_DOT":0.00178667,"MEAN_MOTION_DDOT":0},{"OBJECT_NAME":"STARLINK-11657 [DTC]","OBJECT_ID":"2025-075L","EPOCH":"2026-03-20T09:50:26.739744","MEAN_MOTION":15.70876989,"ECCENTRICITY":0.0001346,"INCLINATION":42.9995,"RA_OF_ASC_NODE":89.2696,"ARG_OF_PERICENTER":253.7965,"MEAN_ANOMALY":106.2754,"EPHEMERIS_TYPE":0,"CLASSIFICATION_TYPE":"U","NORAD_CAT_ID":63558,"ELEMENT_SET_NO":999,"REV_AT_EPOCH":5493,"BSTAR":0.0014203,"MEAN_MOTION_DOT":0.00186229,"MEAN_MOTION_DDOT":0},{"OBJECT_NAME":"STARLINK-11606 [DTC]","OBJECT_ID":"2025-075M","EPOCH":"2026-03-20T09:04:34.275072","MEAN_MOTION":15.70893415,"ECCENTRICITY":0.0001383,"INCLINATION":42.9994,"RA_OF_ASC_NODE":89.0142,"ARG_OF_PERICENTER":267.0557,"MEAN_ANOMALY":93.0152,"EPHEMERIS_TYPE":0,"CLASSIFICATION_TYPE":"U","NORAD_CAT_ID":63559,"ELEMENT_SET_NO":999,"REV_AT_EPOCH":5493,"BSTAR":0.0015468,"MEAN_MOTION_DOT":0.00203409,"MEAN_MOTION_DDOT":0},{"OBJECT_NAME":"STARLINK-11592 [DTC]","OBJECT_ID":"2025-075N","EPOCH":"2026-03-20T09:27:30.178656","MEAN_MOTION":15.7089178,"ECCENTRICITY":0.0002059,"INCLINATION":42.9998,"RA_OF_ASC_NODE":89.1424,"ARG_OF_PERICENTER":274.2583,"MEAN_ANOMALY":85.805,"EPHEMERIS_TYPE":0,"CLASSIFICATION_TYPE":"U","NORAD_CAT_ID":63560,"ELEMENT_SET_NO":999,"REV_AT_EPOCH":5493,"BSTAR":0.0016486,"MEAN_MOTION_DOT":0.00217181,"MEAN_MOTION_DDOT":0},{"OBJECT_NAME":"STARLINK-32953","OBJECT_ID":"2025-075P","EPOCH":"2026-03-20T09:38:36.099744","MEAN_MOTION":15.27593662,"ECCENTRICITY":0.0001258,"INCLINATION":43.0009,"RA_OF_ASC_NODE":210.31,"ARG_OF_PERICENTER":274.5427,"MEAN_ANOMALY":85.5281,"EPHEMERIS_TYPE":0,"CLASSIFICATION_TYPE":"U","NORAD_CAT_ID":63561,"ELEMENT_SET_NO":999,"REV_AT_EPOCH":5356,"BSTAR":0.00057667,"MEAN_MOTION_DOT":0.00015647,"MEAN_MOTION_DDOT":0},{"OBJECT_NAME":"STARLINK-32951","OBJECT_ID":"2025-075Q","EPOCH":"2026-03-20T09:33:03.226464","MEAN_MOTION":15.27613569,"ECCENTRICITY":0.0001271,"INCLINATION":42.9991,"RA_OF_ASC_NODE":210.2555,"ARG_OF_PERICENTER":283.4321,"MEAN_ANOMALY":76.6389,"EPHEMERIS_TYPE":0,"CLASSIFICATION_TYPE":"U","NORAD_CAT_ID":63562,"ELEMENT_SET_NO":999,"REV_AT_EPOCH":5357,"BSTAR":0.00096236,"MEAN_MOTION_DOT":0.00026342,"MEAN_MOTION_DDOT":0},{"OBJECT_NAME":"STARLINK-32958","OBJECT_ID":"2025-075R","EPOCH":"2026-03-20T09:18:14.797728","MEAN_MOTION":15.27587689,"ECCENTRICITY":8.39e-5,"INCLINATION":42.9984,"RA_OF_ASC_NODE":210.2034,"ARG_OF_PERICENTER":266.3193,"MEAN_ANOMALY":93.7563,"EPHEMERIS_TYPE":0,"CLASSIFICATION_TYPE":"U","NORAD_CAT_ID":63563,"ELEMENT_SET_NO":999,"REV_AT_EPOCH":5356,"BSTAR":0.00084621,"MEAN_MOTION_DOT":0.00023102,"MEAN_MOTION_DDOT":0},{"OBJECT_NAME":"STARLINK-32928","OBJECT_ID":"2025-075S","EPOCH":"2026-03-20T10:28:21.420192","MEAN_MOTION":15.27583622,"ECCENTRICITY":0.0001858,"INCLINATION":42.9998,"RA_OF_ASC_NODE":209.7099,"ARG_OF_PERICENTER":279.0907,"MEAN_ANOMALY":80.9734,"EPHEMERIS_TYPE":0,"CLASSIFICATION_TYPE":"U","NORAD_CAT_ID":63564,"ELEMENT_SET_NO":999,"REV_AT_EPOCH":5358,"BSTAR":0.00057016,"MEAN_MOTION_DOT":0.00015462,"MEAN_MOTION_DDOT":0},{"OBJECT_NAME":"STARLINK-32687","OBJECT_ID":"2025-075T","EPOCH":"2026-03-20T09:31:11.290944","MEAN_MOTION":15.27576807,"ECCENTRICITY":0.0003309,"INCLINATION":42.9988,"RA_OF_ASC_NODE":210.2435,"ARG_OF_PERICENTER":292.6672,"MEAN_ANOMALY":67.3829,"EPHEMERIS_TYPE":0,"CLASSIFICATION_TYPE":"U","NORAD_CAT_ID":63565,"ELEMENT_SET_NO":999,"REV_AT_EPOCH":5357,"BSTAR":0.00030522,"MEAN_MOTION_DOT":8.146e-5,"MEAN_MOTION_DDOT":0},{"OBJECT_NAME":"STARLINK-32950","OBJECT_ID":"2025-075U","EPOCH":"2026-03-20T10:20:55.786272","MEAN_MOTION":15.27594815,"ECCENTRICITY":0.0002122,"INCLINATION":42.9988,"RA_OF_ASC_NODE":209.6069,"ARG_OF_PERICENTER":274.2112,"MEAN_ANOMALY":85.8497,"EPHEMERIS_TYPE":0,"CLASSIFICATION_TYPE":"U","NORAD_CAT_ID":63566,"ELEMENT_SET_NO":999,"REV_AT_EPOCH":5357,"BSTAR":0.00097172,"MEAN_MOTION_DOT":0.00026587,"MEAN_MOTION_DDOT":0},{"OBJECT_NAME":"STARLINK-32954","OBJECT_ID":"2025-075V","EPOCH":"2026-03-20T09:05:16.984320","MEAN_MOTION":15.2759581,"ECCENTRICITY":0.0001044,"INCLINATION":42.9978,"RA_OF_ASC_NODE":210.1044,"ARG_OF_PERICENTER":185.0249,"MEAN_ANOMALY":175.0592,"EPHEMERIS_TYPE":0,"CLASSIFICATION_TYPE":"U","NORAD_CAT_ID":63567,"ELEMENT_SET_NO":999,"REV_AT_EPOCH":5356,"BSTAR":0.00046422,"MEAN_MOTION_DOT":0.0001254,"MEAN_MOTION_DDOT":0},{"OBJECT_NAME":"STARLINK-32940","OBJECT_ID":"2025-075W","EPOCH":"2026-03-19T19:05:17.084832","MEAN_MOTION":15.27593701,"ECCENTRICITY":0.00013395,"INCLINATION":42.9999,"RA_OF_ASC_NODE":213.4692,"ARG_OF_PERICENTER":276.3911,"MEAN_ANOMALY":83.6788,"EPHEMERIS_TYPE":0,"CLASSIFICATION_TYPE":"U","NORAD_CAT_ID":63568,"ELEMENT_SET_NO":999,"REV_AT_EPOCH":5347,"BSTAR":0.0011639117,"MEAN_MOTION_DOT":0.00031918,"MEAN_MOTION_DDOT":0},{"OBJECT_NAME":"STARLINK-32959","OBJECT_ID":"2025-076A","EPOCH":"2026-03-20T12:48:16.769088","MEAN_MOTION":15.27593552,"ECCENTRICITY":0.0001119,"INCLINATION":42.9973,"RA_OF_ASC_NODE":264.4325,"ARG_OF_PERICENTER":273.2365,"MEAN_ANOMALY":86.8358,"EPHEMERIS_TYPE":0,"CLASSIFICATION_TYPE":"U","NORAD_CAT_ID":63569,"ELEMENT_SET_NO":999,"REV_AT_EPOCH":5344,"BSTAR":0.00064036,"MEAN_MOTION_DOT":0.00017408,"MEAN_MOTION_DDOT":0},{"OBJECT_NAME":"STARLINK-32956","OBJECT_ID":"2025-076B","EPOCH":"2026-03-20T12:59:10.278816","MEAN_MOTION":15.27603756,"ECCENTRICITY":5.94e-5,"INCLINATION":42.9979,"RA_OF_ASC_NODE":263.6246,"ARG_OF_PERICENTER":316.1051,"MEAN_ANOMALY":43.9754,"EPHEMERIS_TYPE":0,"CLASSIFICATION_TYPE":"U","NORAD_CAT_ID":63570,"ELEMENT_SET_NO":999,"REV_AT_EPOCH":5344,"BSTAR":0.00066646,"MEAN_MOTION_DOT":0.00018136,"MEAN_MOTION_DDOT":0},{"OBJECT_NAME":"STARLINK-33722","OBJECT_ID":"2025-076C","EPOCH":"2026-03-20T13:20:12.060960","MEAN_MOTION":15.27589878,"ECCENTRICITY":0.0001274,"INCLINATION":43.0003,"RA_OF_ASC_NODE":260.2119,"ARG_OF_PERICENTER":246.2746,"MEAN_ANOMALY":113.7972,"EPHEMERIS_TYPE":0,"CLASSIFICATION_TYPE":"U","NORAD_CAT_ID":63571,"ELEMENT_SET_NO":999,"REV_AT_EPOCH":5348,"BSTAR":0.00042942,"MEAN_MOTION_DOT":0.00011577,"MEAN_MOTION_DDOT":0},{"OBJECT_NAME":"STARLINK-33739","OBJECT_ID":"2025-076D","EPOCH":"2026-03-20T12:36:00.768096","MEAN_MOTION":15.27582065,"ECCENTRICITY":0.000164,"INCLINATION":42.9984,"RA_OF_ASC_NODE":260.8408,"ARG_OF_PERICENTER":268.1187,"MEAN_ANOMALY":91.9476,"EPHEMERIS_TYPE":0,"CLASSIFICATION_TYPE":"U","NORAD_CAT_ID":63572,"ELEMENT_SET_NO":999,"REV_AT_EPOCH":5348,"BSTAR":0.0010944,"MEAN_MOTION_DOT":0.00029977,"MEAN_MOTION_DDOT":0},{"OBJECT_NAME":"STARLINK-33683","OBJECT_ID":"2025-076E","EPOCH":"2026-03-20T12:34:09.649920","MEAN_MOTION":15.27591606,"ECCENTRICITY":0.0001178,"INCLINATION":42.9979,"RA_OF_ASC_NODE":260.8301,"ARG_OF_PERICENTER":262.1284,"MEAN_ANOMALY":97.9434,"EPHEMERIS_TYPE":0,"CLASSIFICATION_TYPE":"U","NORAD_CAT_ID":63573,"ELEMENT_SET_NO":999,"REV_AT_EPOCH":5348,"BSTAR":0.00069529,"MEAN_MOTION_DOT":0.00018927,"MEAN_MOTION_DDOT":0},{"OBJECT_NAME":"STARLINK-33732","OBJECT_ID":"2025-076G","EPOCH":"2026-03-20T12:15:39.842784","MEAN_MOTION":15.27588294,"ECCENTRICITY":5.2e-5,"INCLINATION":42.9968,"RA_OF_ASC_NODE":260.7365,"ARG_OF_PERICENTER":176.5039,"MEAN_ANOMALY":183.5817,"EPHEMERIS_TYPE":0,"CLASSIFICATION_TYPE":"U","NORAD_CAT_ID":63575,"ELEMENT_SET_NO":999,"REV_AT_EPOCH":5348,"BSTAR":0.00089054,"MEAN_MOTION_DOT":0.00024331,"MEAN_MOTION_DDOT":0}]
